[{"OBJECT_NAME":"IRIDIUM 142","OBJECT_ID":"2018-030H","EPOCH":"2026-03-09T19:54:27.398592","MEAN_MOTION":14.34217645,"ECCENTRICITY":0.000204,"INCLINATION":86.4006,"RA_OF_ASC_NODE":331.9079,"ARG_OF_PERICENTER":94.7375,"MEAN_ANOMALY":265.4053,"EPHEMERIS_TYPE":0,"CLASSIFICATION_TYPE":"U","NORAD_CAT_ID":43256,"ELEMENT_SET_NO":999,"REV_AT_EPOCH":41589,"BSTAR":-2.157633e-6,"MEAN_MOTION_DOT":1.4e-7,"MEAN_MOTION_DDOT":0},{"OBJECT_NAME":"DELTA 1 DEB","OBJECT_ID":"1975-004FP","EPOCH":"2026-03-08T03:16:24.978144","MEAN_MOTION":14.21033615,"ECCENTRICITY":0.01264432,"INCLINATION":97.9124,"RA_OF_ASC_NODE":140.2851,"ARG_OF_PERICENTER":49.3504,"MEAN_ANOMALY":311.8587,"EPHEMERIS_TYPE":0,"CLASSIFICATION_TYPE":"U","NORAD_CAT_ID":9567,"ELEMENT_SET_NO":999,"REV_AT_EPOCH":59299,"BSTAR":6.9810562e-5,"MEAN_MOTION_DOT":1.28e-6,"MEAN_MOTION_DDOT":0}]
